*******************************************************************************
JPL/HORIZONS                 468 Lina (A901 BC)            2023-Sep-04 11:06:31
Rec #:     468 (+COV) Soln.date: 2023-Aug-23_20:27:28   # obs: 7027 (1901-2023)
 
IAU76/J2000 helio. ecliptic osc. elements (au, days, deg., period=Julian yrs):
 
  EPOCH=  2456791.5 ! 2014-May-14.00 (TDB)         Residual RMS= .27883
   EC= .1977246447636596   QR= 2.512496649697678   TP= 2457440.9961937326
   OM= 21.47571868096125   W=  333.4095473329248   IN= .4374660872686177
   A= 3.131713610917946    MA= 244.4931808129431   ADIST= 3.750930572138215
   PER= 5.54219            N= .177840641           ANGMOM= .029840952
   DAN= 2.55715            DDN= 3.65564            L= 354.8859345
   B= -.1958127            MOID= 1.50858998        TP= 2016-Feb-22.4961937326
 
Asteroid physical parameters (km, seconds, rotational period in hours):
   GM= n.a.                RAD= 30.119             ROTPER= 16.33
   H= 9.87                 G= .150                 B-V= .660
                           ALBEDO= .057            STYP= CPF

ASTEROID comments: 
1: soln ref.= JPL#63, OCC=0
2: source=ORB
*******************************************************************************


*******************************************************************************
Ephemeris / API_USER Mon Sep  4 11:06:31 2023 Pasadena, USA      / Horizons
*******************************************************************************
Target body name: 468 Lina (A901 BC)              {source: JPL#63}
Center body name: Solar System Barycenter (0)     {source: DE441}
Center-site name: BODY CENTER
*******************************************************************************
Start time      : A.D. 2023-Aug-12 00:00:00.0000 TDB
Stop  time      : A.D. 2023-Aug-13 00:00:00.0000 TDB
Step-size       : 2880 minutes
*******************************************************************************
Center geodetic : 0.0, 0.0, 0.0                   {E-lon(deg),Lat(deg),Alt(km)}
Center cylindric: 0.0, 0.0, 0.0                   {E-lon(deg),Dxy(km),Dz(km)}
Center radii    : (undefined)
Small perturbers: Yes                             {source: SB441-N16}
Output units    : KM-S
Calendar mode   : Mixed Julian/Gregorian
Output type     : GEOMETRIC cartesian states
Output format   : 2 (position and velocity)
Reference frame : Ecliptic of J2000.0
*******************************************************************************
Initial IAU76/J2000 heliocentric ecliptic osculating elements (au, days, deg.):
  EPOCH=  2456791.5 ! 2014-May-14.00 (TDB)         Residual RMS= .27883        
   EC= .1977246447636596   QR= 2.512496649697678   TP= 2457440.9961937326      
   OM= 21.47571868096125   W=  333.4095473329248   IN= .4374660872686177       
  Equivalent ICRF heliocentric cartesian coordinates (au, au/d):
   X=-2.622048295999812E+00  Y=-2.102900721064586E+00  Z=-9.215106500525910E-01
  VX= 6.707360962659986E-03 VY=-5.029842086591520E-03 VZ=-2.243789659560672E-03
Asteroid physical parameters (km, seconds, rotational period in hours):        
   GM= n.a.                RAD= 30.119             ROTPER= 16.33               
   H= 9.87                 G= .150                 B-V= .660                   
                           ALBEDO= .057            STYP= CPF                   
*******************************************************************************
JDTDB
   X     Y     Z
   VX    VY    VZ
*******************************************************************************
$$SOE
2460168.500000000 = A.D. 2023-Aug-12 00:00:00.0000 TDB 
 X =-3.800635971105108E+08 Y = 3.739174876314479E+08 Z = 3.740646153972298E+06
 VX=-1.168963688777467E+01 VY=-8.879566009759033E+00 VZ=-3.016016135646282E-02
$$EOE
*******************************************************************************
 
TIME

  Barycentric Dynamical Time ("TDB" or T_eph) output was requested. This
continuous coordinate time is equivalent to the relativistic proper time
of a clock at rest in a reference frame co-moving with the solar system
barycenter but outside the system's gravity well. It is the independent
variable in the solar system relativistic equations of motion.

  TDB runs at a uniform rate of one SI second per second and is independent
of irregularities in Earth's rotation.
 
CALENDAR SYSTEM

  Mixed calendar mode was active such that calendar dates after AD 1582-Oct-15
(if any) are in the modern Gregorian system. Dates prior to 1582-Oct-5 (if any)
are in the Julian calendar system, which is automatically extended for dates
prior to its adoption on 45-Jan-1 BC.  The Julian calendar is useful for
matching historical dates. The Gregorian calendar more accurately corresponds
to the Earth's orbital motion and seasons. A "Gregorian-only" calendar mode is
available if such physical events are the primary interest.

REFERENCE FRAME AND COORDINATES

  Ecliptic at the standard reference epoch

    Reference epoch: J2000.0
    X-Y plane: adopted Earth orbital plane at the reference epoch
               Note: IAU76 obliquity of 84381.448 arcseconds wrt ICRF X-Y plane
    X-axis   : ICRF
    Z-axis   : perpendicular to the X-Y plane in the directional (+ or -) sense
               of Earth's north pole at the reference epoch.

  Symbol meaning:

    JDTDB    Julian Day Number, Barycentric Dynamical Time
      X      X-component of position vector (km)
      Y      Y-component of position vector (km)
      Z      Z-component of position vector (km)
      VX     X-component of velocity vector (km/sec)                           
      VY     Y-component of velocity vector (km/sec)                           
      VZ     Z-component of velocity vector (km/sec)                           

ABERRATIONS AND CORRECTIONS

 Geometric state vectors have NO corrections or aberrations applied.

Computations by ...

    Solar System Dynamics Group, Horizons On-Line Ephemeris System
    4800 Oak Grove Drive, Jet Propulsion Laboratory
    Pasadena, CA  91109   USA

    General site: https://ssd.jpl.nasa.gov/
    Mailing list: https://ssd.jpl.nasa.gov/email_list.html
    System news : https://ssd.jpl.nasa.gov/horizons/news.html
    User Guide  : https://ssd.jpl.nasa.gov/horizons/manual.html
    Connect     : browser        https://ssd.jpl.nasa.gov/horizons/app.html#/x
                  API            https://ssd-api.jpl.nasa.gov/doc/horizons.html
                  command-line   telnet ssd.jpl.nasa.gov 6775
                  e-mail/batch   https://ssd.jpl.nasa.gov/ftp/ssd/hrzn_batch.txt
                  scripts        https://ssd.jpl.nasa.gov/ftp/ssd/SCRIPTS
    Author      : Jon.D.Giorgini@jpl.nasa.gov
*******************************************************************************
